{
  "links" : {
    "next" : "https://api.nasa.gov/neo/rest/v1/feed?start_date=2002-12-16&end_date=2002-12-16&detailed=true&api_key=t0TVs3DtDT2H8Oy2Zy8m2eVrNsAVKAexjcZXUckd",
    "prev" : "https://api.nasa.gov/neo/rest/v1/feed?start_date=2002-12-14&end_date=2002-12-14&detailed=true&api_key=t0TVs3DtDT2H8Oy2Zy8m2eVrNsAVKAexjcZXUckd",
    "self" : "https://api.nasa.gov/neo/rest/v1/feed?start_date=2002-12-15&end_date=2002-12-15&detailed=true&api_key=t0TVs3DtDT2H8Oy2Zy8m2eVrNsAVKAexjcZXUckd"
  },
  "element_count" : 9,
  "near_earth_objects" : {
    "2002-12-15" : [ {
      "links" : {
        "self" : "https://api.nasa.gov/neo/rest/v1/neo/2302169?api_key=t0TVs3DtDT2H8Oy2Zy8m2eVrNsAVKAexjcZXUckd"
      },
      "neo_reference_id" : "2302169",
      "name" : "302169 (2001 TD45)",
      "nasa_jpl_url" : "http://ssd.jpl.nasa.gov/sbdb.cgi?sstr=2302169",
      "absolute_magnitude_h" : 19.9,
      "estimated_diameter" : {
        "kilometers" : {
          "estimated_diameter_min" : 0.2783267681,
          "estimated_diameter_max" : 0.6223575734
        },
        "meters" : {
          "estimated_diameter_min" : 278.3267680719,
          "estimated_diameter_max" : 622.3575733667
        },
        "miles" : {
          "estimated_diameter_min" : 0.1729441822,
          "estimated_diameter_max" : 0.3867149477
        },
        "feet" : {
          "estimated_diameter_min" : 913.1455937611,
          "estimated_diameter_max" : 2041.8556210042
        }
      },
      "is_potentially_hazardous_asteroid" : true,
      "close_approach_data" : [ {
        "close_approach_date" : "2002-12-15",
        "epoch_date_close_approach" : 1039939200000,
        "relative_velocity" : {
          "kilometers_per_second" : "30.7308686971",
          "kilometers_per_hour" : "110631.1273093847",
          "miles_per_hour" : "68741.8801884341"
        },
        "miss_distance" : {
          "astronomical" : "0.422351745",
          "lunar" : "164.2948303223",
          "kilometers" : "63182924",
          "miles" : "39260048"
        },
        "orbiting_body" : "Earth"
      } ],
      "orbital_data" : {
        "orbit_id" : "22",
        "orbit_determination_date" : "2017-04-06 09:24:07",
        "orbit_uncertainty" : "0",
        "minimum_orbit_intersection" : ".026816",
        "jupiter_tisserand_invariant" : "6.975",
        "epoch_osculation" : "2458000.5",
        "eccentricity" : ".7774813126655364",
        "semi_major_axis" : ".7967790476136839",
        "inclination" : "25.39730481828331",
        "ascending_node_longitude" : "30.28217769630749",
        "orbital_period" : "259.7797441108315",
        "perihelion_distance" : ".177298227770601",
        "perihelion_argument" : "212.4325076341248",
        "aphelion_distance" : "1.416259867456767",
        "perihelion_time" : "2458118.465718974680",
        "mean_anomaly" : "196.5243642215359",
        "mean_motion" : "1.385789339473716",
        "equinox" : "J2000"
      }
    }, {
      "links" : {
        "self" : "https://api.nasa.gov/neo/rest/v1/neo/2345705?api_key=t0TVs3DtDT2H8Oy2Zy8m2eVrNsAVKAexjcZXUckd"
      },
      "neo_reference_id" : "2345705",
      "name" : "345705 (2006 VB14)",
      "nasa_jpl_url" : "http://ssd.jpl.nasa.gov/sbdb.cgi?sstr=2345705",
      "absolute_magnitude_h" : 18.6,
      "estimated_diameter" : {
        "kilometers" : {
          "estimated_diameter_min" : 0.5064714588,
          "estimated_diameter_max" : 1.1325046106
        },
        "meters" : {
          "estimated_diameter_min" : 506.4714588346,
          "estimated_diameter_max" : 1132.5046106177
        },
        "miles" : {
          "estimated_diameter_min" : 0.3147066768,
          "estimated_diameter_max" : 0.7037055224
        },
        "feet" : {
          "estimated_diameter_min" : 1661.651821003,
          "estimated_diameter_max" : 3715.566426699
        }
      },
      "is_potentially_hazardous_asteroid" : false,
      "close_approach_data" : [ {
        "close_approach_date" : "2002-12-15",
        "epoch_date_close_approach" : 1039939200000,
        "relative_velocity" : {
          "kilometers_per_second" : "21.6454340946",
          "kilometers_per_hour" : "77923.5627407256",
          "miles_per_hour" : "48418.6715263136"
        },
        "miss_distance" : {
          "astronomical" : "0.2745943064",
          "lunar" : "106.8171844482",
          "kilometers" : "41078724",
          "miles" : "25525136"
        },
        "orbiting_body" : "Earth"
      } ],
      "orbital_data" : {
        "orbit_id" : "147",
        "orbit_determination_date" : "2017-09-08 06:18:16",
        "orbit_uncertainty" : "0",
        "minimum_orbit_intersection" : ".0795334",
        "jupiter_tisserand_invariant" : "7.382",
        "epoch_osculation" : "2458000.5",
        "eccentricity" : ".4212910392425531",
        "semi_major_axis" : ".7669086794477493",
        "inclination" : "31.02287422538695",
        "ascending_node_longitude" : "258.7334365973851",
        "orbital_period" : "245.3092395762557",
        "perihelion_distance" : ".443816924879073",
        "perihelion_argument" : "346.4354547902304",
        "aphelion_distance" : "1.090000434016426",
        "perihelion_time" : "2458095.757501361373",
        "mean_anomaly" : "220.2062419282247",
        "mean_motion" : "1.467535428432536",
        "equinox" : "J2000"
      }
    }, {
      "links" : {
        "self" : "https://api.nasa.gov/neo/rest/v1/neo/2434188?api_key=t0TVs3DtDT2H8Oy2Zy8m2eVrNsAVKAexjcZXUckd"
      },
      "neo_reference_id" : "2434188",
      "name" : "434188 (2003 AD23)",
      "nasa_jpl_url" : "http://ssd.jpl.nasa.gov/sbdb.cgi?sstr=2434188",
      "absolute_magnitude_h" : 18.8,
      "estimated_diameter" : {
        "kilometers" : {
          "estimated_diameter_min" : 0.4619074603,
          "estimated_diameter_max" : 1.0328564805
        },
        "meters" : {
          "estimated_diameter_min" : 461.9074602816,
          "estimated_diameter_max" : 1032.8564805039
        },
        "miles" : {
          "estimated_diameter_min" : 0.2870159005,
          "estimated_diameter_max" : 0.6417870641
        },
        "feet" : {
          "estimated_diameter_min" : 1515.4444719902,
          "estimated_diameter_max" : 3388.6368554964
        }
      },
      "is_potentially_hazardous_asteroid" : true,
      "close_approach_data" : [ {
        "close_approach_date" : "2002-12-15",
        "epoch_date_close_approach" : 1039939200000,
        "relative_velocity" : {
          "kilometers_per_second" : "16.8834568176",
          "kilometers_per_hour" : "60780.4445432887",
          "miles_per_hour" : "37766.6045552451"
        },
        "miss_distance" : {
          "astronomical" : "0.4592880388",
          "lunar" : "178.6630401611",
          "kilometers" : "68708512",
          "miles" : "42693492"
        },
        "orbiting_body" : "Earth"
      } ],
      "orbital_data" : {
        "orbit_id" : "30",
        "orbit_determination_date" : "2017-06-04 06:18:14",
        "orbit_uncertainty" : "0",
        "minimum_orbit_intersection" : ".0335533",
        "jupiter_tisserand_invariant" : "3.830",
        "epoch_osculation" : "2458000.5",
        "eccentricity" : ".7626849273445908",
        "semi_major_axis" : "1.645485108869364",
        "inclination" : "23.34522109047897",
        "ascending_node_longitude" : "101.5324981465252",
        "orbital_period" : "770.9733416749539",
        "perihelion_distance" : ".3904984181647271",
        "perihelion_argument" : "241.6228435937261",
        "aphelion_distance" : "2.900471799574001",
        "perihelion_time" : "2457961.759595636010",
        "mean_anomaly" : "18.08953023036711",
        "mean_motion" : ".4669422151716599",
        "equinox" : "J2000"
      }
    } ]
  }
}